title	address	lat	lng	type
ibis Styles Makassar Sam Ratulangi	Jl. DR. Ratulangi No.3, Mangkura, Kec. Ujung Pandang, Kota Makassar, Sulawesi Selatan 90114, Indonesia	-5.148785	119.41608599999999	Hotel
ibis Makassar City Center	Jl. Maipa No.8, Sulawesi Selatan 90112, Indonesia	-5.144647	119.410461	Hotel
Aryaduta Makassar	Jl. Somba OPU No.297, Losari, Kec. Ujung Pandang, Kota Makassar, Sulawesi Selatan 90111, Indonesia	-5.1460171	119.4089771	Hotel
"Hotel Bintang 5 ""Assalam"""	Q9RR+C7C, Barombong, Kec. Tamalate, Kota Makassar, Sulawesi Selatan 90225, Indonesia	-5.2089474	119.3906473	Hotel
Four Points by Sheraton Makassar	Jl. Andi Djemma No.130, Banta-Bantaeng, Kec. Rappocini, Kota Makassar, Sulawesi Selatan 90222, Indonesia	-5.167733999999999	119.42832729999999	Hotel
favehotel Pantai Losari - Makassar	Jl. Daeng Tompo No.28-36, Maloku, Kec. Ujung Pandang, Kota Makassar, Sulawesi Selatan 90112, Indonesia	-5.1431077	119.4096768	Hotel
Aston Makassar Hotel & Convention Center	Jl. Sultan Hasanuddin No.10, Baru, Kec. Ujung Pandang, Kota Makassar, Sulawesi Selatan 90174, Indonesia	-5.137185	119.4084085	Hotel
Hotel Pengayoman	Ruko Alfa, Jl. Pengayoman No.3-5, Pandang, Kec. Panakkukang, Kota Makassar, Sulawesi Selatan 90231, Indonesia	-5.1606306	119.44987929999999	Hotel
Novotel Makassar Grand Shayla	Jl. Chairil Anwar No.28, Sawerigading, Kec. Ujung Pandang, Kota Makassar, Sulawesi Selatan 90115, Indonesia	-5.1394665999999996	119.41388309999999	Hotel
Hotel Horison Ultima Makassar	Jl. Jend. Sudirman No.24, Sawerigading, Kec. Ujung Pandang, Kota Makassar, Sulawesi Selatan 90115, Indonesia	-5.1416883	119.4143524	Hotel
Hotel Sahid Jaya Makassar	Jl. DR. Ratulangi No.33, Mamajang Luar, Kec. Mamajang, Kota Makassar, Sulawesi Selatan 90132, Indonesia	-5.1525	119.41694439999999	Hotel
CLARO HOTEL MAKASSAR	Jl. A. P. Pettarani No.03, Mannuruki, Kec. Tamalate, Kota Makassar, Sulawesi Selatan 90221, Indonesia	-5.1695129	119.43316159999999	Hotel
Arthama Hotel Makassar	Jalan Haji Bau No.5 Mangkura, Losari, Kec. Ujung Pandang, Kota Makassar, Sulawesi Selatan 90113, Indonesia	-5.1483607	119.4103009	Hotel
Karebosi Premier	Jl. Jend. M. Jusuf No.1, Pattunuang, Kec. Wajo, Kota Makassar, Sulawesi Selatan 90157, Indonesia	-5.132677	119.4138397	Hotel
Hotel MaxOne Makassar	Jl. Taman Makam Pahlawan No.5, Tello Baru, Kec. Panakkukang, Kota Makassar, Sulawesi Selatan 90233, Indonesia	-5.147467	119.4615401	Hotel
Gammara Hotel Makassar	Jl. Metro Tj. Bunga, Kp. Buyang, Kec. Mariso, Kota Makassar, Sulawesi Selatan 90121, Indonesia	-5.157546	119.4044354	Hotel
Golden Tulip Essential Makassar	Jl. Sultan Hasanuddin No.43, Sawerigading, Kec. Ujung Pandang, Kota Makassar, Sulawesi Selatan 90111, Indonesia	-5.140522499999999	119.4106674	Hotel
Capital O 1279 Hotel Grand Celino Makassar	Jl. Lanto Dg. Pasewang No.27, Maricaya, Kec. Makassar, Kota Makassar, Sulawesi Barat 90142, Indonesia	-5.1516459999999995	119.4189753	Hotel
Grand Wisata Hotel	Jl. Sultan Hasanuddin No.36-38, Sawerigading, Kec. Ujung Pandang, Kota Makassar, Sulawesi Selatan 90115, Indonesia	-5.140388	119.41009199999999	Hotel
The Rinra Hotel Makassar	Mall Phinisi Point, Jl. Metro Tj. Bunga No.2, Panambungan, Kec. Mariso, Kota Makassar, Sulawesi Selatan 90112, Indonesia	-5.1527281	119.4039256	Hotel
Whiz Prime Hotel Hasanuddin Makasar	Jl. Sultan Hasanuddin No.4, Baru, Kec. Ujung Pandang, Kota Makassar, Sulawesi Selatan 90111, Indonesia	-5.1366811	119.4079742	Hotel
MYKO Hotel & Convention Center Makassar	Mall Panakkukang, Jl. Boulevard, Masale, Kec. Panakkukang, Kota Makassar, Sulawesi Selatan 90231, Indonesia	-5.1571055999999995	119.4473103	Hotel
Al-Badar Hotel Syariah Makassar	Ruko Mirah 2, Jl. Pengayoman No.11, Pandang, Kec. Panakkukang, Kota Makassar, Sulawesi Selatan 90231, Indonesia	-5.1608	119.44903	Hotel
Grand Populer Hotel	Jl. Sulawesi No.30, Pattunuang, Kec. Wajo, Kota Makassar, Sulawesi Selatan 90173, Indonesia	-5.131165	119.406646	Hotel
Whiz Prime Hotel Sudirman Makassar	Jl. Jend. Sudirman No.30, Sawerigading, Kec. Ujung Pandang, Kota Makassar, Sulawesi Selatan 90115, Indonesia	-5.1422588	119.4145659	Hotel
Teraskita Hotel Makassar managed by DAFAM	Jl. A. P. Pettarani No.88, Banta-Bantaeng, Rappocini, Makassar City, South Sulawesi 90222, Indonesia	-5.160801	119.4357721	Hotel
RedDoorz Plus Syariah @ Grand Sayang Park Hotel Makassar	Jl. Manunggal 22, Maccini Sombala, Kec. Tamalate, Kota Makassar, Sulawesi Selatan 90224, Indonesia	-5.1673946	119.40161889999999	Hotel
Kenari Tower Hotel	Jl. Yosep Latumahina No.30, Losari, Kec. Ujung Pandang, Kota Makassar, Sulawesi Selatan 90113, Indonesia	-5.1461191	119.410141	Hotel
Capital O 454 Raising Hotel	Jl. Racing Centre No.31, Karampuang, Kec. Panakkukang, Kota Makassar, Sulawesi Selatan 90231, Indonesia	-5.144864999999999	119.4525104	Hotel
Mercure Makassar Nexa Pettarani	Jl. A. P. Pettarani No.4, Gn. Sari, Kec. Rappocini, Kota Makassar, Sulawesi Selatan 90222, Indonesia	-5.171003499999999	119.43247369999999	Hotel
M-Regency Hotel Makassar	Jl. Daeng Tompo No.8, Maloku, Kec. Ujung Pandang, Kota Makassar, Sulawesi Selatan 90115, Indonesia	-5.1405015999999994	119.40882459999999	Hotel
Hotel Grand Citra	Jl. Boto Lempangan No.28, Sawerigading, Kec. Ujung Pandang, Kota Makassar, Sulawesi Selatan 90115, Indonesia	-5.139795299999999	119.4108471	Hotel
Grand Asia Hotel	Jl. Boulevard No.10, Masale, Kec. Panakkukang, Kota Makassar, Sulawesi Selatan 90231, Indonesia	-5.1556638999999995	119.4381332	Hotel
OYO 308 Grand Pacifik Hotel	Jl. Gunung Latimojong No.43, Gaddong, Kec. Bontoala, Kota Makassar, Sulawesi Selatan 90157, Indonesia	-5.1346991	119.42005739999999	Hotel
d'primahotel Pattimura Makassar	Jl. Pattimura No.9, Baru, Kec. Ujung Pandang, Kota Makassar, Sulawesi Selatan 90174, Indonesia	-5.1363866	119.4068449	Hotel
Wthree Premier Hotel Makassar	Jl. Lagaligo No.34, Mangkura, Kec. Ujung Pandang, Kota Makassar, Sulawesi Selatan 90114, Indonesia	-5.1472731	119.41479489999999	Hotel
SPOT ON 2330 Pondok Grand Mamoa	I, Jl. Mamoa Raya Jl. Sultan Alauddin 3 Lrg. 5 No.B, 90221, Indonesia	-5.133864	119.40529	Hotel
Hotel Grand Town	Komp Pasar Segar, Jl. Pengayoman Blk. E No.9B, Pandang, Kec. Panakkukang, Kota Makassar, Sulawesi Selatan 90222, Indonesia	-5.162136299999999	119.45156259999999	Hotel
Hotel Grand Imawan	Jl. Pengayoman No.36, Masale, Kec. Panakkukang, Kota Makassar, Sulawesi Selatan 90231, Indonesia	-5.1589431999999995	119.4439486	Hotel
Hotel Makassar Golden	Jl. Ps. Ikan No.52, Bulo Gading, Kec. Ujung Pandang, Kota Makassar, Sulawesi Selatan 90111, Indonesia	-5.1383149999999995	119.40545399999999	Hotel
Hotel Pacific	Jalan Botolempangan Raya No.53, Sawerigading, Kec. Ujung Pandang, Kota Makassar, Sulawesi Selatan 90113, Indonesia	-5.1429901	119.4126441	Hotel
Hotel Meli√£ Makassar	Jl. A. Mappanyukki No.17, Kunjung Mae, Kec. Mariso, Kota Makassar, Sulawesi Selatan 90134, Indonesia	-5.1504294	119.41477809999999	Hotel
Hotel Crown Inn	Jl. Gn. Lompobattang No.58, Pisang Utara, Kec. Ujung Pandang, Kota Makassar, Sulawesi Selatan 90115, Indonesia	-5.134846	119.41502	Hotel
Hotel Remcy Panakkukang Makassar	Jl. Boulevard Blok F5 No.9, Masale, Kec. Panakkukang, Kota Makassar, Sulawesi Selatan 90231, Indonesia	-5.1563563	119.4400787	Hotel
ibis Makassar City Center	Jl. Maipa No.8, Sulawesi Selatan 90112, Indonesia	-5.144647	119.410461	Hotel
Grand Asia Hotel	Jl. Boulevard No.10, Masale, Kec. Panakkukang, Kota Makassar, Sulawesi Selatan 90231, Indonesia	-5.155664	119.438133	Hotel
OYO 308 Grand Pacifik Hotel	Jl. Gunung Latimojong No.43, Gaddong, Kec. Bontoala, Kota Makassar, Sulawesi Selatan 90157, Indonesia	-5.1346991	119.42005739999999	Hotel
Hotel Makassar Golden	Jl. Ps. Ikan No.52, Bulo Gading, Kec. Ujung Pandang, Kota Makassar, Sulawesi Selatan 90111, Indonesia	-5.1383149999999995	119.40545399999999	Hotel
d'primahotel Pattimura Makassar	Jl. Pattimura No.9, Baru, Kec. Ujung Pandang, Kota Makassar, Sulawesi Selatan 90174, Indonesia	-5.1363866	119.4068449	Hotel
Hotel Remcy Panakkukang Makassar	Jl. Boulevard Blok F5 No.9, Masale, Kec. Panakkukang, Kota Makassar, Sulawesi Selatan 90231, Indonesia	-5.1563563	119.4400787	Hotel
Hotel Surya Indonesia	Jl. Daeng Tompo No.3, Maloku, Kec. Ujung Pandang, Kota Makassar, Sulawesi Selatan 90112, Indonesia	-5.1396703	119.40914939999999	Hotel
Red Cendrawasih Hotel	Ruko Cendrawasih Square F1-5, Jl. Cendrawasih No.452, Sambung Jawa, Kec. Mamajang, Kota Makassar, Sulawesi Selatan 90126, Indonesia	-5.1731114	119.4088287	Hotel
Lobby Hotel Aston Makassar	VC76+972, Baru, Kec. Ujung Pandang, Kota Makassar, Sulawesi Selatan 90174, Indonesia	-5.1366035	119.41065479999999	Hotel
TREE HOTEL	Jl. Pandang Raya No.12, Pandang, Kec. Panakkukang, Kota Makassar, Sulawesi Selatan 90231, Indonesia	-5.1581354	119.45171359999999	Hotel
Hotel Yasmin Makassar RedPartner	Jl. Jampea No.5, Pattunuang, Kec. Makassar, Kota Makassar, Sulawesi Selatan 90174, Indonesia	-5.1318867	119.40733999999999	Hotel
Hotel Singgasana	Jl. Kajaolalido No.16, Baru, Kec. Tallo, Kota Makassar, Sulawesi Selatan 90013, Indonesia	-5.1369511	119.4102697	Hotel
Hotel Pacific	Jalan Botolempangan Raya No.53, Sawerigading, Kec. Ujung Pandang, Kota Makassar, Sulawesi Selatan 90113, Indonesia	-5.1429901	119.4126441	Hotel
Hotel Crown Inn	Jl. Gn. Lompobattang No.58, Pisang Utara, Kec. Ujung Pandang, Kota Makassar, Sulawesi Selatan 90115, Indonesia	-5.134846	119.41502	Hotel
Scarlet Hotel Makassar	Jl. Bonto Mangape No.13, Mannuruki, Kec. Tamalate, Kota Makassar, Sulawesi Selatan 90221, Indonesia	-5.171089299999999	119.4290712	Hotel
M Boutique Hotel	Jl. G. Bawakaraeng No.39-41, Pisang Utara, Kec. Ujung Pandang, Kota Makassar, Sulawesi Selatan 90156, Indonesia	-5.1353437	119.4167581	Hotel
Travellers Hotel Phinisi	Jl. Lamaddukelleng Buntu No.59, Kunjung Mae, Kec. Mariso, Kota Makassar, Sulawesi Selatan 90113, Indonesia	-5.149348	119.4109469	Hotel
d'primahotel Panakkukang Makassar	Jl. Pelita Raya No.8, Bua Kana, Kec. Rappocini, Kota Makassar, Sulawesi Selatan 90231, Indonesia	-5.1545472	119.43611159999999	Hotel
OYO 1560 Capital Hotel	000, Jl. Pengayoman No.28, Pandang, Kec. Panakkukang, Kota Makassar, Sulawesi Barat 90222, Indonesia	-5.160089	119.4487339	Hotel
HOTEL DIAMOND	Jl. Boulevard Ruko Cemp. Jl. Boulevard No.28, Masale, Kec. Panakkukang, Kota Makassar, Sulawesi Selatan 90231, Indonesia	-5.155844699999999	119.4458947	Hotel
ATRIA INN MAKASSAR	Jl. Ance Daeng Ngoyo No.8A, Masale, Kec. Panakkukang, Kota Makassar, Sulawesi Selatan 90231, Indonesia	-5.1514	119.443181	Hotel
KHAS Makassar Hotel	Jl. A. Mappanyukki No.49, Kunjung Mae, Kec. Mariso, Kota Makassar, Sulawesi Selatan 90125, Indonesia	-5.1527987	119.414881	Hotel
