title	address	lat	lng	type
SMA Negeri 1 Makassar	Jl. G. Bawakaraeng No.53, Gaddong, Kec. Bontoala, Kota Makassar, Sulawesi Selatan 90111, Indonesia	-5.1349863	119.4186289	Sekolah Menengah Atas
SMA Negeri 16 Makassar	Jl. Amanagappa No.8, Baru, Kec. Ujung Pandang, Kota Makassar, Sulawesi Selatan 90115, Indonesia	-5.1374913	119.4114086	Sekolah Menengah Atas
SMA Negeri 13 Makassar	Jl. Tamangapa Raya 3 No.37, Bangkala, Kec. Manggala, Kota Makassar, Sulawesi Selatan 90235, Indonesia	-5.1753111999999994	119.47788879999999	Sekolah Menengah Atas
SMAN 5 Makassar	Jl. Taman Makam Pahlawan No.4, Tello Baru, Kec. Panakkukang, Kota Makassar, Sulawesi Selatan 90233, Indonesia	-5.1489306	119.4610707	Sekolah Menengah Atas
SMA Negeri 3 Makassar	Jl. Baji Areng No.18, Baji Mappakasunggu, Kec. Mamajang, Kota Makassar, Sulawesi Selatan 90121, Indonesia	-5.1683981999999995	119.41318319999999	Sekolah Menengah Atas
SMA Negeri 8 Makassar	Jl. Andi Mangerangi 2 Lorong 3 No.24, Bongaya, Kec. Tamalate, Kota Makassar, Sulawesi Selatan 90131, Indonesia	-5.1699019	119.414193	Sekolah Menengah Atas
Sekolah Menengah Atas Negeri 11 Makassar	Jl. Andi Mappaodang No.28, Jongaya, Kec. Tamalate, Kota Makassar, Sulawesi Selatan 90223, Indonesia	-5.171647	119.4162216	Sekolah Menengah Atas
SMA Negeri 14 Makassar	Jl. Baji Minasa No.9, Tamarunang, Kec. Mariso, Kota Makassar, Sulawesi Selatan 90122, Indonesia	-5.1657372	119.40884899999999	Sekolah Menengah Atas
Sekolah Menengah Atas Nasional Makassar	Jl. DR. Ratulangi No.84, Mario, Kec. Mariso, Kota Makassar, Sulawesi Selatan 90125, Indonesia	-5.1569116	119.4160538	Sekolah Menengah Atas
SMA Negeri 12 Makassar	Jl. Moha Lasuloro No.57, Antang, Kec. Manggala, Kota Makassar, Sulawesi Selatan 90234, Indonesia	-5.1630984	119.48360269999999	Sekolah Menengah Atas
SMA Negeri 10 Makassar	Jl. Tamangapa Raya 5 No.12, Tamangapa, Kec. Manggala, Kota Makassar, Sulawesi Selatan 90325, Indonesia	-5.1851118	119.4883481	Sekolah Menengah Atas
SMA Negeri 1 Gowa	Jl. Andi Mallombasang No.1A, Pandang Pandang, Kec. Somba Opu, Kabupaten Gowa, Sulawesi Selatan 92111, Indonesia	-5.2034252	119.4473659	Sekolah Menengah Atas
SMA Negeri 17 Makassar	Jl. Sunu No.11, Suangga, Kec. Tallo, Kota Makassar, Sulawesi Selatan 90211, Indonesia	-5.120890999999999	119.4292191	Sekolah Menengah Atas
SMA Negeri 4 Makassar	Jl. Cakalang No.3, Totaka, Kec. Ujung Tanah, Kota Makassar, Sulawesi Selatan 90164, Indonesia	-5.1167511999999995	119.4188959	Sekolah Menengah Atas
SMA Muhammadiyah 3 Makassar	Jl. Urip Sumoharjo No.37, Karuwisi Utara, Kec. Panakkukang, Kota Makassar, Sulawesi Selatan 90232, Indonesia	-5.1356231	119.4366987	Sekolah Menengah Atas
SMA Negeri 10 Gowa	Komplek BTN Saumata Indah, Jl. Mustafa Dg. Bunga, Romangpolong, Makassar, Kabupaten Gowa, Sulawesi Selatan 92113, Indonesia	-5.204591799999999	119.48942989999999	Sekolah Menengah Atas
SMA Negeri 14 Gowa	Jl. Malino No.210 A, Tompobalang, Kec. Somba Opu, Kabupaten Gowa, Sulawesi Selatan 92112, Indonesia	-5.2139254	119.4655966	Sekolah Menengah Atas
SMA Negeri 19 Makassar	RGP7+F2R, Manggala, Kec. Manggala, Kota Makassar, Sulawesi Selatan 90562, Indonesia	-5.163772799999999	119.5125056	Sekolah Menengah Atas
SMA Negeri 21 Makassar	Jl. Tamalanrea Raya No.1A, Tamalanrea, Kec. Tamalanrea, Kota Makassar, Sulawesi Selatan 90245, Indonesia	-5.1368398	119.5151356	Sekolah Menengah Atas
SMA Protestan Makassar	Jl. Sungai Saddang, No. 2, Ujung Pandang, Maradekaya Sel., Kec. Makassar, Kota Makassar, Sulawesi Selatan 90113, Indonesia	-5.1457614	119.41723209999999	Sekolah Menengah Atas
SMA Negeri 9 Gowa	Jl. Baso Dg. Ngawing, Mangalli, Kec. Pallangga, Kabupaten Gowa, Sulawesi Selatan 92161, Indonesia	-5.226433	119.4504116	Sekolah Menengah Atas
SMA Negeri 6 Makassar	Jalan Prof. Dr. Ir. Sutami No.4, Bira, Kec. Tamalanrea, Kota Makassar, Sulawesi Selatan 90244, Indonesia	-5.089258	119.4819074	Sekolah Menengah Atas
Sma Negeri 1 Pasir Putih	Jl. Syech Yusuf No.12/23, Pandang Pandang, Kec. Somba Opu, Kabupaten Gowa, Sulawesi Selatan 90221, Indonesia	-5.188805299999999	119.44414239999999	Sekolah Menengah Atas
SMA DHARMA YADI Makassar	Jl. Sukaria Raya No.22, Tamamaung, Kec. Panakkukang, Kota Makassar, Sulawesi Selatan 90231, Indonesia	-5.1439808	119.4419133	Sekolah Menengah Atas
SMA Negeri 15 Makassar	Jl. Ir. Sutami No.7, Bulurokeng, Kec. Biringkanaya, Kota Makassar, Sulawesi Selatan 90243, Indonesia	-5.0802401999999995	119.4950851	Sekolah Menengah Atas
SMA Negeri 18 Makassar	VGFJ+VQR, Komp. Mangga Tiga Permai Daya, Paccerakkang, Kec. Biringkanaya, Kota Makassar, Sulawesi Selatan 90241, Indonesia	-5.1252591999999995	119.5318827	Sekolah Menengah Atas
SMA Negeri 8 Gowa	QG94+875, Jl. Malino, Romang Lompoa, Kec. Bontomarannu, Kabupaten Gowa, Sulawesi Selatan 92171, Indonesia	-5.2317298	119.50574689999999	Sekolah Menengah Atas
SMA Negeri 22 Makassar	KOR KNPI, Jl. Pajjaiang, Sudiang Raya, Kec. Biringkanaya, Kota Makassar, Sulawesi Selatan 90242, Indonesia	-5.1044276	119.5314538	Sekolah Menengah Atas
SMA Negeri 7 MAKASSAR	WG9M+FF4, Sudiang, Kec. Biringkanaya, Kota Makassar, Sulawesi Selatan 90552, Indonesia	-5.0813749	119.5336885	Sekolah Menengah Atas
SMA Negeri 4 Takalar	P9HH+8VC, Tamasaju, Kec. Galesong Utara, Kabupaten Takalar, Sulawesi Selatan 92255, Indonesia	-5.2716772	119.3796538	Sekolah Menengah Atas
SMA Negeri 20 Gowa	PFQ8+8X4, Borong Bilalang Desa, Julubori, Kec. Pallangga, Kabupaten Gowa, Sulawesi Selatan 92161, Indonesia	-5.2617268	119.4674507	Sekolah Menengah Atas
SMA Negeri 1 Galesong Utara	P9HH+4HG, Jl. Pendidikan, Tamasaju, Kec. Galesong Utara, Kabupaten Takalar, Sulawesi Selatan 92255, Indonesia	-5.2721778	119.3789614	Sekolah Menengah Atas
SMA NEGERI 21 GOWA	QG7W+2RC, Timbuseng, Kec. Pattallassang, Kabupaten Gowa, Sulawesi Selatan 92171, Indonesia	-5.2374336999999995	119.5470275	Sekolah Menengah Atas
SMA Negeri 2 Gowa	MCWQ+H22, JL Pendidikan, Limbung Gowa, Kalebajeng, Kec. Bajeng, Kabupaten Gowa, Sulawesi Selatan 92152, Indonesia	-5.3036125	119.4375256	Sekolah Menengah Atas
SMA Negeri 1 Bajeng Barat	MCM3+2RR, Gentungang, Kec. Bajeng Bar., Kabupaten Gowa, Sulawesi Selatan 92152, Indonesia	-5.317393	119.4045039	Sekolah Menengah Atas
SMA Negeri 1 Galesong Selatan	M9M8+4MP, Galesong Baru, Kec. Galesong, Kabupaten Takalar, Sulawesi Selatan 92255, Indonesia	-5.3171737	119.366688	Sekolah Menengah Atas
SMA Negeri 5 MAROS	WJF7+MF8, Borong, Kec. Tanralili, Kabupaten Maros, Sulawesi Selatan 90553, Indonesia	-5.0758345	119.6137181	Sekolah Menengah Atas
